0 CZ-4 DEB
1 37609U 90081CV  13286.86597458  .00000225  00000-0  15938-3 0   668
2 37609 098.9091 322.4215 0068309 159.5727 200.8424 14.06335311501546
0 CZ-4 DEB
1 37609U 90081CV  13290.92132241  .00000229  00000-0  16151-3 0   678
2 37609 098.9116 326.4169 0069110 148.3435 212.1897 14.06337566502117
0 CZ-4 DEB
1 37609U 90081CV  13294.33635072  .00000214  00000-0  15242-3 0   682
2 37609 098.9125 329.7790 0069991 138.8595 221.7767 14.06338825502594
